KUIPER-00232            
1 67148U 25301R   25363.81201366  .00040827  00000+0  11202-2 0  9991
2 67148  51.8740  42.6733 0001831  59.4961 300.6206 15.36861250  2999
KUIPER-00241            
1 67149U 25301S   25363.81614635  .00047812  00000+0  13282-2 0  9990
2 67149  51.8741  42.6997 0002913 108.9708 251.1594 15.36402461  3327
KUIPER-00245            
1 67150U 25301T   25363.82159578  .00047170  00000+0  13357-2 0  9993
2 67150  51.8728  42.7397 0005071 131.9042 228.2377 15.35803737  2990
KUIPER-00246            
1 67151U 25301U   25363.81881294  .00075058  00000+0  20918-2 0  9997
2 67151  51.8737  42.7190 0004118 121.7314 238.4074 15.36095390  3012
KUIPER-00247            
1 67152U 25301V   25363.83624441  .00031056  00000+0  93022-3 0  9996
2 67152  51.8646  42.8318 0011035 164.0928 196.0406 15.34190355  2991
KUIPER-00248            
1 67153U 25301W   25363.63497590  .00039913  00000+0  11662-2 0  9997
2 67153  51.8689  43.7370 0008874 150.9615 209.1866 15.34871274  3130
KUIPER-00249            
1 67154U 25301X   25363.63334356  .00031000  00000+0  90609-3 0  9996
2 67154  51.8663  43.7258 0008104 147.7854 212.3628 15.34989926  2969
KUIPER-00250            
1 67155U 25301Y   25363.62901829  .00040986  00000+0  11725-2 0  9995
2 67155  51.8718  43.6987 0006330 137.4391 222.7086 15.35543189  2994
