<?xml version="1.0" encoding="UTF-8"?>
<ndm xmlns:xsi="http://www.w3.org/2001/XMLSchema-instance" xsi:noNamespaceSchemaLocation="https://sanaregistry.org/r/ndmxml_unqualified/ndmxml-2.0.0-master-2.0.xsd">
<omm id="CCSDS_OMM_VERS" version="2.0">
<header><CREATION_DATE/><ORIGINATOR/></header><body><segment><metadata><OBJECT_NAME>KUIPER-00232</OBJECT_NAME><OBJECT_ID>2025-301R</OBJECT_ID><CENTER_NAME>EARTH</CENTER_NAME><REF_FRAME>TEME</REF_FRAME><TIME_SYSTEM>UTC</TIME_SYSTEM><MEAN_ELEMENT_THEORY>SGP4</MEAN_ELEMENT_THEORY></metadata><data><meanElements><EPOCH>2025-12-29T19:29:17.980224</EPOCH><MEAN_MOTION>15.36861250</MEAN_MOTION><ECCENTRICITY>.0001831</ECCENTRICITY><INCLINATION>51.8740</INCLINATION><RA_OF_ASC_NODE>42.6733</RA_OF_ASC_NODE><ARG_OF_PERICENTER>59.4961</ARG_OF_PERICENTER><MEAN_ANOMALY>300.6206</MEAN_ANOMALY></meanElements><tleParameters><EPHEMERIS_TYPE>0</EPHEMERIS_TYPE><CLASSIFICATION_TYPE>U</CLASSIFICATION_TYPE><NORAD_CAT_ID>67148</NORAD_CAT_ID><ELEMENT_SET_NO>999</ELEMENT_SET_NO><REV_AT_EPOCH>299</REV_AT_EPOCH><BSTAR>.11202E-2</BSTAR><MEAN_MOTION_DOT>.40827E-3</MEAN_MOTION_DOT><MEAN_MOTION_DDOT>0</MEAN_MOTION_DDOT></tleParameters></data></segment></body></omm>
<omm id="CCSDS_OMM_VERS" version="2.0">
<header><CREATION_DATE/><ORIGINATOR/></header><body><segment><metadata><OBJECT_NAME>KUIPER-00241</OBJECT_NAME><OBJECT_ID>2025-301S</OBJECT_ID><CENTER_NAME>EARTH</CENTER_NAME><REF_FRAME>TEME</REF_FRAME><TIME_SYSTEM>UTC</TIME_SYSTEM><MEAN_ELEMENT_THEORY>SGP4</MEAN_ELEMENT_THEORY></metadata><data><meanElements><EPOCH>2025-12-29T19:35:15.044640</EPOCH><MEAN_MOTION>15.36402461</MEAN_MOTION><ECCENTRICITY>.0002913</ECCENTRICITY><INCLINATION>51.8741</INCLINATION><RA_OF_ASC_NODE>42.6997</RA_OF_ASC_NODE><ARG_OF_PERICENTER>108.9708</ARG_OF_PERICENTER><MEAN_ANOMALY>251.1594</MEAN_ANOMALY></meanElements><tleParameters><EPHEMERIS_TYPE>0</EPHEMERIS_TYPE><CLASSIFICATION_TYPE>U</CLASSIFICATION_TYPE><NORAD_CAT_ID>67149</NORAD_CAT_ID><ELEMENT_SET_NO>999</ELEMENT_SET_NO><REV_AT_EPOCH>332</REV_AT_EPOCH><BSTAR>.13282E-2</BSTAR><MEAN_MOTION_DOT>.47812E-3</MEAN_MOTION_DOT><MEAN_MOTION_DDOT>0</MEAN_MOTION_DDOT></tleParameters></data></segment></body></omm>
<omm id="CCSDS_OMM_VERS" version="2.0">
<header><CREATION_DATE/><ORIGINATOR/></header><body><segment><metadata><OBJECT_NAME>KUIPER-00245</OBJECT_NAME><OBJECT_ID>2025-301T</OBJECT_ID><CENTER_NAME>EARTH</CENTER_NAME><REF_FRAME>TEME</REF_FRAME><TIME_SYSTEM>UTC</TIME_SYSTEM><MEAN_ELEMENT_THEORY>SGP4</MEAN_ELEMENT_THEORY></metadata><data><meanElements><EPOCH>2025-12-29T19:43:05.875392</EPOCH><MEAN_MOTION>15.35803737</MEAN_MOTION><ECCENTRICITY>.0005071</ECCENTRICITY><INCLINATION>51.8728</INCLINATION><RA_OF_ASC_NODE>42.7397</RA_OF_ASC_NODE><ARG_OF_PERICENTER>131.9042</ARG_OF_PERICENTER><MEAN_ANOMALY>228.2377</MEAN_ANOMALY></meanElements><tleParameters><EPHEMERIS_TYPE>0</EPHEMERIS_TYPE><CLASSIFICATION_TYPE>U</CLASSIFICATION_TYPE><NORAD_CAT_ID>67150</NORAD_CAT_ID><ELEMENT_SET_NO>999</ELEMENT_SET_NO><REV_AT_EPOCH>299</REV_AT_EPOCH><BSTAR>.13357E-2</BSTAR><MEAN_MOTION_DOT>.4717E-3</MEAN_MOTION_DOT><MEAN_MOTION_DDOT>0</MEAN_MOTION_DDOT></tleParameters></data></segment></body></omm>
<omm id="CCSDS_OMM_VERS" version="2.0">
<header><CREATION_DATE/><ORIGINATOR/></header><body><segment><metadata><OBJECT_NAME>KUIPER-00246</OBJECT_NAME><OBJECT_ID>2025-301U</OBJECT_ID><CENTER_NAME>EARTH</CENTER_NAME><REF_FRAME>TEME</REF_FRAME><TIME_SYSTEM>UTC</TIME_SYSTEM><MEAN_ELEMENT_THEORY>SGP4</MEAN_ELEMENT_THEORY></metadata><data><meanElements><EPOCH>2025-12-29T19:39:05.438016</EPOCH><MEAN_MOTION>15.36095390</MEAN_MOTION><ECCENTRICITY>.0004118</ECCENTRICITY><INCLINATION>51.8737</INCLINATION><RA_OF_ASC_NODE>42.7190</RA_OF_ASC_NODE><ARG_OF_PERICENTER>121.7314</ARG_OF_PERICENTER><MEAN_ANOMALY>238.4074</MEAN_ANOMALY></meanElements><tleParameters><EPHEMERIS_TYPE>0</EPHEMERIS_TYPE><CLASSIFICATION_TYPE>U</CLASSIFICATION_TYPE><NORAD_CAT_ID>67151</NORAD_CAT_ID><ELEMENT_SET_NO>999</ELEMENT_SET_NO><REV_AT_EPOCH>301</REV_AT_EPOCH><BSTAR>.20918E-2</BSTAR><MEAN_MOTION_DOT>.75058E-3</MEAN_MOTION_DOT><MEAN_MOTION_DDOT>0</MEAN_MOTION_DDOT></tleParameters></data></segment></body></omm>
<omm id="CCSDS_OMM_VERS" version="2.0">
<header><CREATION_DATE/><ORIGINATOR/></header><body><segment><metadata><OBJECT_NAME>KUIPER-00247</OBJECT_NAME><OBJECT_ID>2025-301V</OBJECT_ID><CENTER_NAME>EARTH</CENTER_NAME><REF_FRAME>TEME</REF_FRAME><TIME_SYSTEM>UTC</TIME_SYSTEM><MEAN_ELEMENT_THEORY>SGP4</MEAN_ELEMENT_THEORY></metadata><data><meanElements><EPOCH>2025-12-29T20:04:11.517024</EPOCH><MEAN_MOTION>15.34190355</MEAN_MOTION><ECCENTRICITY>.0011035</ECCENTRICITY><INCLINATION>51.8646</INCLINATION><RA_OF_ASC_NODE>42.8318</RA_OF_ASC_NODE><ARG_OF_PERICENTER>164.0928</ARG_OF_PERICENTER><MEAN_ANOMALY>196.0406</MEAN_ANOMALY></meanElements><tleParameters><EPHEMERIS_TYPE>0</EPHEMERIS_TYPE><CLASSIFICATION_TYPE>U</CLASSIFICATION_TYPE><NORAD_CAT_ID>67152</NORAD_CAT_ID><ELEMENT_SET_NO>999</ELEMENT_SET_NO><REV_AT_EPOCH>299</REV_AT_EPOCH><BSTAR>.93022E-3</BSTAR><MEAN_MOTION_DOT>.31056E-3</MEAN_MOTION_DOT><MEAN_MOTION_DDOT>0</MEAN_MOTION_DDOT></tleParameters></data></segment></body></omm>
<omm id="CCSDS_OMM_VERS" version="2.0">
<header><CREATION_DATE/><ORIGINATOR/></header><body><segment><metadata><OBJECT_NAME>KUIPER-00248</OBJECT_NAME><OBJECT_ID>2025-301W</OBJECT_ID><CENTER_NAME>EARTH</CENTER_NAME><REF_FRAME>TEME</REF_FRAME><TIME_SYSTEM>UTC</TIME_SYSTEM><MEAN_ELEMENT_THEORY>SGP4</MEAN_ELEMENT_THEORY></metadata><data><meanElements><EPOCH>2025-12-29T15:14:21.917760</EPOCH><MEAN_MOTION>15.34871274</MEAN_MOTION><ECCENTRICITY>.0008874</ECCENTRICITY><INCLINATION>51.8689</INCLINATION><RA_OF_ASC_NODE>43.7370</RA_OF_ASC_NODE><ARG_OF_PERICENTER>150.9615</ARG_OF_PERICENTER><MEAN_ANOMALY>209.1866</MEAN_ANOMALY></meanElements><tleParameters><EPHEMERIS_TYPE>0</EPHEMERIS_TYPE><CLASSIFICATION_TYPE>U</CLASSIFICATION_TYPE><NORAD_CAT_ID>67153</NORAD_CAT_ID><ELEMENT_SET_NO>999</ELEMENT_SET_NO><REV_AT_EPOCH>313</REV_AT_EPOCH><BSTAR>.11662E-2</BSTAR><MEAN_MOTION_DOT>.39913E-3</MEAN_MOTION_DOT><MEAN_MOTION_DDOT>0</MEAN_MOTION_DDOT></tleParameters></data></segment></body></omm>
<omm id="CCSDS_OMM_VERS" version="2.0">
<header><CREATION_DATE/><ORIGINATOR/></header><body><segment><metadata><OBJECT_NAME>KUIPER-00249</OBJECT_NAME><OBJECT_ID>2025-301X</OBJECT_ID><CENTER_NAME>EARTH</CENTER_NAME><REF_FRAME>TEME</REF_FRAME><TIME_SYSTEM>UTC</TIME_SYSTEM><MEAN_ELEMENT_THEORY>SGP4</MEAN_ELEMENT_THEORY></metadata><data><meanElements><EPOCH>2025-12-29T15:12:00.883584</EPOCH><MEAN_MOTION>15.34989926</MEAN_MOTION><ECCENTRICITY>.0008104</ECCENTRICITY><INCLINATION>51.8663</INCLINATION><RA_OF_ASC_NODE>43.7258</RA_OF_ASC_NODE><ARG_OF_PERICENTER>147.7854</ARG_OF_PERICENTER><MEAN_ANOMALY>212.3628</MEAN_ANOMALY></meanElements><tleParameters><EPHEMERIS_TYPE>0</EPHEMERIS_TYPE><CLASSIFICATION_TYPE>U</CLASSIFICATION_TYPE><NORAD_CAT_ID>67154</NORAD_CAT_ID><ELEMENT_SET_NO>999</ELEMENT_SET_NO><REV_AT_EPOCH>296</REV_AT_EPOCH><BSTAR>.90609E-3</BSTAR><MEAN_MOTION_DOT>.31E-3</MEAN_MOTION_DOT><MEAN_MOTION_DDOT>0</MEAN_MOTION_DDOT></tleParameters></data></segment></body></omm>
<omm id="CCSDS_OMM_VERS" version="2.0">
<header><CREATION_DATE/><ORIGINATOR/></header><body><segment><metadata><OBJECT_NAME>KUIPER-00250</OBJECT_NAME><OBJECT_ID>2025-301Y</OBJECT_ID><CENTER_NAME>EARTH</CENTER_NAME><REF_FRAME>TEME</REF_FRAME><TIME_SYSTEM>UTC</TIME_SYSTEM><MEAN_ELEMENT_THEORY>SGP4</MEAN_ELEMENT_THEORY></metadata><data><meanElements><EPOCH>2025-12-29T15:05:47.180256</EPOCH><MEAN_MOTION>15.35543189</MEAN_MOTION><ECCENTRICITY>.000633</ECCENTRICITY><INCLINATION>51.8718</INCLINATION><RA_OF_ASC_NODE>43.6987</RA_OF_ASC_NODE><ARG_OF_PERICENTER>137.4391</ARG_OF_PERICENTER><MEAN_ANOMALY>222.7086</MEAN_ANOMALY></meanElements><tleParameters><EPHEMERIS_TYPE>0</EPHEMERIS_TYPE><CLASSIFICATION_TYPE>U</CLASSIFICATION_TYPE><NORAD_CAT_ID>67155</NORAD_CAT_ID><ELEMENT_SET_NO>999</ELEMENT_SET_NO><REV_AT_EPOCH>299</REV_AT_EPOCH><BSTAR>.11725E-2</BSTAR><MEAN_MOTION_DOT>.40986E-3</MEAN_MOTION_DOT><MEAN_MOTION_DDOT>0</MEAN_MOTION_DDOT></tleParameters></data></segment></body></omm>

</ndm>
